{"spkid": "54373236", "covariance": {"elements": [{"label": "e", "units": null, "title": "eccentricity", "value": ".5999010903077491", "sigma": 2.88371518817388e-07, "name": "e"}, {"value": ".3230953784370802", "title": "perihelion distance", "units": "au", "sigma": 2.32213759202899e-07, "name": "q", "label": "q"}, {"sigma": 2.38731630447946e-05, "name": "tp", "title": "time of perihelion passage", "value": "2459783.150803291658", "units": "TDB", "label": "tp"}, {"name": "om", "sigma": 1.41116011728853e-05, "title": "longitude of the ascending node", "value": "273.7705292571218", "units": "deg", "label": "node"}, {"name": "w", "sigma": 1.57261264286136e-05, "title": "argument of perihelion", "value": "205.8604444728644", "units": "deg", "label": "peri"}, {"sigma": 2.48985667686324e-05, "name": "i", "units": "deg", "title": "inclination", "value": "12.23493852701187", "label": "i"}], "data": [["8.315813286504713E-14", "-6.696168480686433E-14", "6.614155779657739E-12", "-2.091947189233302E-13", "-1.24609742000893E-12", "2.40644448883259E-12"], ["-6.696168480686433E-14", "5.392322996314216E-14", "-5.330465646191053E-12", "1.68681559534335E-13", "1.003447638869151E-12", "-1.93883842632984E-12"], ["6.614155779657739E-12", "-5.330465646191053E-12", "5.699279137633476E-10", "-5.228778161915317E-11", "-4.31900678819239E-11", "1.246297213205372E-10"], ["-2.091947189233302E-13", "1.68681559534335E-13", "-5.228778161915317E-11", "1.991372876625784E-10", "-2.030082362947551E-10", "-2.674632096207943E-11"], ["-1.24609742000893E-12", "1.003447638869151E-12", "-4.31900678819239E-11", "-2.030082362947551E-10", "2.473110524487382E-10", "-4.160721651533047E-11"], ["2.40644448883259E-12", "-1.93883842632984E-12", "1.246297213205372E-10", "-2.674632096207943E-11", "-4.160721651533047E-11", "6.199386271320472E-10"]], "labels": ["e", "q", "tp", "node", "peri", "i"], "epoch": "2459845.5"}, "elements": [{"label": "e", "name": "e", "sigma": "2.8841E-7", "units": null, "value": ".5999593331656577", "title": "eccentricity"}, {"units": "au", "value": ".8074694891980113", "title": "semi-major axis", "name": "a", "sigma": "4.8975E-9", "label": "a"}, {"label": "q", "units": "au", "value": ".3230206329071582", "title": "perihelion distance", "name": "q", "sigma": "2.3226E-7"}, {"value": "12.25467897734666", "title": "inclination; angle with respect to x-y ecliptic plane", "units": "deg", "sigma": "2.4862E-5", "name": "i", "label": "i"}, {"label": "node", "title": "longitude of the ascending node", "value": "273.7431763836651", "units": "deg", "sigma": "1.4104E-5", "name": "om"}, {"sigma": "1.5699E-5", "name": "w", "value": "205.8734785211488", "title": "argument of perihelion", "units": "deg", "label": "peri"}, {"label": "M", "title": "mean anomaly", "value": "125.2683198726838", "units": "deg", "sigma": "4.0121E-5", "name": "ma"}, {"sigma": "2.9041E-5", "name": "tp", "units": "TDB", "value": "2461108.279736137828", "title": "time of perihelion passage", "label": "tp"}, {"label": "period", "name": "per", "sigma": "2.4111E-6", "title": "sidereal orbital period", "value": "265.0254671262774", "units": "d"}, {"units": "deg/d", "title": "mean motion", "value": "1.358360024429161", "name": "n", "sigma": "1.2358E-8", "label": "n"}, {"title": "aphelion distance", "value": "1.291918345488865", "units": "au", "name": "ad", "sigma": "7.8357E-9", "label": "Q"}], "epoch": "2461200.5"}